#dP2022  2 26  0  0  0.00000000      96 __u+U ITR00 FIT  IAC
## 2198 518400.00000000   900.00000000 59636 0.0000000000000
+  129   C01C02C03C04C05C06C07C08C09C10C11C12C13C14C16C19C20
+        C21C22C23C24C25C26C27C28C29C30C32C33C34C35C36C37C38
+        C39C40C41C42C43C44C45C46C59C60E01E02E03E04E05E07E08
+        E09E10E11E12E13E14E15E18E19E21E24E25E26E27E30E31E33
+        E34E36G01G02G03G04G05G06G07G08G09G10G11G12G13G14G15
+        G16G17G18G19G20G21G22G23G24G25G26G27G28G29G30G31G32
+        J01J02J03J07R01R02R03R04R05R06R07R08R09R10R11R12R13
+        R14R15R17R18R19R20R21R22R23R24  0  0  0  0  0  0  0
++         0 14 14 14 14  9  9  9  8  8  8  8  8  8  9  7  7
++         7  7  7  7  7  7  7  7  7  7  7  7  7  7  7  7  8
++         8  8  7  7  7  7  7  7 16 14  4  4  4  4  4  4  8
++         4  5  5  4  4  4  4  4  4  4  4  4  4  4  4  4  4
++         4  4  3  4  3  3  4  3  4  4  3  3  4  3  4  4  4
++         4  3  4  3  4  3  3  4  4  3  4  4  4  4  4  3  7
++         8  8  8 15  7  6  6  6  6 13  6  6  6 13  8  6  7
++         6  6  6  5  7  7  6  7 13  6  0  0  0  0  0  0  0
%c M  cc GPS ccc cccc cccc cccc cccc ccccc ccccc ccccc ccccc
%c cc cc ccc ccc cccc cccc cccc cccc ccccc ccccc ccccc ccccc
%f  0.0000000  0.000000000  0.00000000000  0.000000000000000
%f  0.0000000  0.000000000  0.00000000000  0.000000000000000
%i    0    0    0    0      0      0      0      0         0
%i    0    0    0    0      0      0      0      0         0
/* INFORMATION & ANALYSIS CENTER (IAC)            RAPID DATA
/* S/V CLOCKS ARE ALIGNED TO GNSS TIME                      
/* G:C1WC2W R:C1PC2P E:C1XC5X C:C2IC6I J:C1CC2S             
/* PCV:IGS14_2196 OL/AL:FES2004  NONE     YN ORB:CoN CLK:CoN
*  2022 02 26 10 15  0.00000000
PC01      0.000000      0.000000      0.000000 999999.999999
PC02   4409.867703  41871.341954   -990.031020    279.589790
PC03 -14791.345880  39444.772782   -178.940736    900.233597
PC04 -39621.945419  14408.675351    582.136802      5.174722
PC05  22025.084073  35879.973760   -816.005516   -412.712868
PC06  -2355.671530  29394.671280 -30058.717708    117.492675
PC07 -16946.754797  28506.513834  25961.289082   -100.805985
PC08 -12245.793644  40385.728855   1850.507246    160.754777
PC09   6705.866580  33900.904088 -23506.404554   -556.602670
PC10  -8314.297357  28841.142109  29711.284002    139.571941
PC11  17563.164956  -1817.210353 -21549.507921   -184.756870
PC12  22011.972262  14415.869880  -9267.526786    681.420716
PC13  -6652.232239  41370.148761  -5720.434884   -105.481049
PC14  26366.521253  -8805.234649   2795.087008    452.763593
PC16  -2692.957152  28449.043629 -30757.596506     90.895534
PC19 -21204.087224  13805.148255 -11724.649072    892.408719
PC20 -27225.858996   3491.812005   4972.401444   -832.103687
PC21  17270.922103   9575.291688 -19704.188667   -934.685035
PC22  -2631.254867  16532.767555 -22317.575191   -958.682957
PC23   3656.780926 -27112.693985  -5484.688267   -952.691913
PC24  16923.268801  -1316.642769  22128.635718   -944.580224
PC25  13868.705312 -21436.708668  11225.569035   -773.809070
PC26  10267.998188  16815.275622  19762.560821    773.752230
PC27 -19490.088374 -19979.278853    573.846339    683.436468
PC28  -6191.163620 -22253.434869 -15657.289647     37.188017
PC29 -10705.445467  11755.809713  22926.974092    520.327804
PC30 -22014.604386  -5884.489448  16121.360036    494.114471
PC32 -17273.945147  -9516.573942  19759.683299   -970.437932
PC33  21179.207761 -13937.185484  11685.565202   -960.326558
PC34  21727.966236   4964.183280 -16784.527924   -460.443602
PC35   6187.364483  21852.544978  16182.376224    157.314632
PC36 -14557.529588  20773.271220 -11624.992515   -919.458359
PC37  -9231.412669 -17969.937403 -19232.060284   -953.325982
PC38 -15462.896747  38418.674047   8333.368521    214.136627
PC39  -8223.497451  24176.389407 -33503.925724     34.821430
PC40 -23050.664272  22666.497323  26958.084717    247.683944
PC41   3065.441340 -16666.099470  22225.600771   -944.417535
PC42  27138.808165  -2912.926131  -5802.280109   -933.514743
PC43  11362.402959 -11283.764501 -22860.963487   -939.389773
PC44  20084.217473  19340.810963   -406.809449    577.303698
PC45  -3512.661191  27101.295733   5715.455660    690.579234
PC46 -17053.832239   3035.791019 -21891.443311   -188.955886
PC59 -32320.723268  27068.549922   -621.375002     -0.133871
PC60   7338.956327  41498.561717   1068.874506     -0.334038
PE01 -21430.906143   1875.738603 -20341.543012   -586.427743
PE02  21475.528567  -2004.559700  20254.684490    282.744014
PE03  28916.598590   5892.917416   2357.677027   -531.751797
PE04 -21757.716038   7762.406006 -18503.019116   -972.916973
PE05  19205.259059  16349.627883 -15488.013264   -205.452257
PE07   1545.792222 -17151.808896  24080.424731   -642.905304
PE08  21389.393036  -8003.098330  18837.162485   -486.089514
PE09  -1164.354590  17070.687145 -24151.137911   5347.091219
PE10  -6280.385697  22084.492914  18678.092807   -497.469279
PE11    712.297406  27698.699200  10382.150705   4362.729741
PE12 -12182.873901  13241.295325  23501.711600   4740.389828
PE13   -364.811335 -27481.821810 -10997.884343    426.849559
PE14  27849.840703  11370.012457  -2303.722134  -1759.216111
PE15  12131.689367 -13133.583835 -23582.074383    761.010797
PE18 -18846.612440 -17087.084866  -8163.857521  -1747.555099
PE19 -28616.633061  -7581.778300      0.023305   -417.046937
PE21  -8543.462940 -14742.242875 -24208.666514   -719.399860
PE24 -11187.712484  23963.313234  13310.048141  -1411.505344
PE25   8292.135595  14952.162764  24164.811366   -564.935668
PE26 -13008.904332 -25069.946085   8871.645594   -849.885637
PE27   9974.189346 -23867.110801 -14375.216245   -240.970113
PE30  22881.177351 -18121.321049   4838.724124   -305.014891
PE31 -22478.429145  18882.762952  -3834.640527   -492.744019
PE33 -17429.833935  -8913.811006  22214.244473   -459.074084
PE34  17439.790591   8645.800774 -22300.887555   -503.875336
PE36  12553.628311  25590.867155  -7949.098407   -337.705511
PG01 -13486.264193   6841.967301  21506.141940    422.032851
PG02  14188.734006  15693.855759 -15315.177818   -651.508651
PG03 -22678.732334  12262.721618   6038.993988   -138.948759
PG04 -21450.741163   2203.278957 -15555.677011   -187.217968
PG05  19322.266694    681.584663 -18436.826659    -72.770489
PG06   5481.439188  25737.546852  -3217.336292    213.677179
PG07  -6547.900777  21754.369978 -12958.416526    312.881364
PG08 -25459.925341  -5202.622551   6305.650955    -57.692876
PG09 -12043.798633  11208.279975 -20925.385302   -352.458379
PG10   4987.389485 -19142.198693  17723.337613   -331.172047
PG11  12483.654846  17188.895530 -15954.794022    -77.129834
PG12  23491.026394  -8600.568075   8455.279073   -176.756609
PG13  23049.412528  13375.531817    -28.556297    267.942329
PG14  -6523.205458  19353.476737  16936.828606    -88.235893
PG15  25799.689313   2231.987655   6205.546683    -80.918945
PG16 -16721.186941  -5789.540330 -20215.796080   -474.225307
PG17   3647.176245  17036.093079  20468.055103    580.133435
PG18   6675.642377 -21943.872352 -13305.849833    231.932196
PG19  11763.337883  18111.473050  15324.449795    123.943105
PG20  12721.418142   9220.680282 -21401.362863    516.536786
PG21 -16246.722204  -4358.539984  21354.384698    158.640102
PG22 -14308.833040 -18091.891241  13730.225204    219.316588
PG23  14961.236183 -20028.885337   8818.513134     -2.126912
PG24  15463.750250  -2478.678546  21162.752323    272.248779
PG25  19397.557696 -17720.526772  -2933.261123    290.875298
PG26  -6525.353231 -14793.821559 -21115.401401    186.414609
PG27 -23067.808532 -12861.815720  -4597.005708    134.576289
PG28   1482.209371  16424.597273  21386.336659    392.200191
PG29  14692.613353  -8062.304331 -20666.869419   -484.881239
PG30   -972.044471  25856.951663  -5306.760045   -515.656326
PG31  -6928.285363 -24708.836745  -5938.332272   -166.481683
PG32  -8894.511566 -17386.531858  18217.896576    -74.610735
PJ01 -33714.087094  14662.993705 -15959.809678    227.654039
PJ02 -28814.028372  30674.966219   1738.025229     -1.599764
PJ03 -25556.470890  22969.119554  29519.182438     -0.706389
PJ07 -25410.310263  33645.681434    -35.958287      0.001651
PR01   3950.023399 -11230.991415  22564.974323      7.139221
PR02 -16865.126059  -7379.666035  17733.485147    510.841380
PR03 -25429.302338    545.847044   2341.263410     52.160467
PR04 -19687.246568   7842.014388 -14176.191918    129.440869
PR05  -3157.214678  10875.299536 -22844.997741     88.402372
PR06  17870.683274   6574.729529 -16966.540720    -34.694226
PR07  25420.523045   -929.336677  -1474.036508     32.054825
PR08  19508.889248  -8064.984413  14357.522746    -63.750295
PR09   5689.474683  12730.541388  21355.670034     41.515776
PR10  13071.526478  -3394.120742  21608.573433    -80.111794
PR11  13969.658433 -19202.436380   9334.542777     44.840532
PR12   6296.149977 -22951.055229  -9129.345748     17.287555
PR13  -4683.758626 -13686.467395 -21029.372170    -18.758485
PR14 -13610.889323   4756.960431 -21034.387754     74.801635
PR15 -14084.938852  19462.534701  -8565.927250     97.935607
PR17 -15511.680397  -8229.696333  18499.127679    504.975674
PR18  -7464.893312   7593.394696  23193.331076    108.560482
PR19   3244.315365  19214.368243  16461.542389   -179.582402
PR20  14216.445975  20983.254545  -2629.574916    -65.647506
PR21  15035.689078   7077.872096 -19356.396801   -281.044153
PR22   6781.948230  -8489.233784 -23096.396528   -167.133474
PR23  -7645.109364 -21412.622614 -11577.687618    -31.648933
PR24 -14987.148893 -20366.189631   3353.614106     81.939307
EOF
